STARLINK-32249          
1 60444U 24144V   24234.91667824 -.00735153  18042-3 -18861-2 0  9991
2 60444  53.1528 329.0298 0000870  54.7118 207.7645 15.94532033  2758
STARLINK-32228          
1 60445U 24144W   24234.91667824 -.00731474  17880-3 -18775-2 0  9997
2 60445  53.1529 329.0339 0000928  46.9295 213.6658 15.94522767  2752
STARLINK-32247          
1 60446U 24144X   24234.91667824 -.00738057  18187-3 -18838-2 0  9993
2 60446  53.1528 329.0246 0000954  46.3885 218.5694 15.94628942  2753
STARLINK-32101          
1 60447U 24144Y   24234.91667824 -.00723280  17504-3 -18678-2 0  9990
2 60447  53.1528 329.0439 0000972  46.8558 209.0446 15.94407040  2664
